[{"OBJECT_NAME":"STARLINK-2329","OBJECT_ID":"2021-021P","EPOCH":"2026-03-09T17:20:52.132704","MEAN_MOTION":15.3017618,"ECCENTRICITY":0.00011565,"INCLINATION":53.1598,"RA_OF_ASC_NODE":255.3078,"ARG_OF_PERICENTER":80.1333,"MEAN_ANOMALY":279.9798,"EPHEMERIS_TYPE":0,"CLASSIFICATION_TYPE":"U","NORAD_CAT_ID":47873,"ELEMENT_SET_NO":999,"REV_AT_EPOCH":27642,"BSTAR":-0.00010686119,"MEAN_MOTION_DOT":-3.52e-5,"MEAN_MOTION_DDOT":0},{"OBJECT_NAME":"GEOSCAN 3 (RS92S3)","OBJECT_ID":"2025-155T","EPOCH":"2026-03-09T22:52:10.587648","MEAN_MOTION":15.31696739,"ECCENTRICITY":0.00068078,"INCLINATION":97.4455,"RA_OF_ASC_NODE":37.9971,"ARG_OF_PERICENTER":154.1387,"MEAN_ANOMALY":206.0196,"EPHEMERIS_TYPE":0,"CLASSIFICATION_TYPE":"U","NORAD_CAT_ID":64893,"ELEMENT_SET_NO":999,"REV_AT_EPOCH":6564,"BSTAR":0.00078414081,"MEAN_MOTION_DOT":0.00023985,"MEAN_MOTION_DDOT":0}]
